{
    "links": {
        "self": "http://www.neowsapp.com/rest/v1/neo/3465283?api_key=iIulBulltgU6a56xZRHN4H3l9WmuAYTsLGpBGhQ2"
    },
    "id": "3465283",
    "neo_reference_id": "3465283",
    "name": "(2009 OY7)",
    "designation": "2009 OY7",
    "nasa_jpl_url": "http://ssd.jpl.nasa.gov/sbdb.cgi?sstr=3465283",
    "absolute_magnitude_h": 24.8,
    "estimated_diameter": {
        "kilometers": {
            "estimated_diameter_min": 0.0291443905,
            "estimated_diameter_max": 0.0651688382
        },
        "meters": {
            "estimated_diameter_min": 29.1443904535,
            "estimated_diameter_max": 65.1688382168
        },
        "miles": {
            "estimated_diameter_min": 0.018109479,
            "estimated_diameter_max": 0.0404940262
        },
        "feet": {
            "estimated_diameter_min": 95.6180819754,
            "estimated_diameter_max": 213.8085311752
        }
    },
    "is_potentially_hazardous_asteroid": false,
    "close_approach_data": [
        {
            "close_approach_date": "2009-07-29",
            "close_approach_date_full": "2009-Jul-29 10:56",
            "epoch_date_close_approach": 1248864960000,
            "relative_velocity": {
                "kilometers_per_second": "15.5272446301",
                "kilometers_per_hour": "55898.0806682243",
                "miles_per_hour": "34732.8935129864"
            },
            "miss_distance": {
                "astronomical": "0.0364167255",
                "lunar": "14.1661062195",
                "kilometers": "5447864.567174685",
                "miles": "3385146.070733253"
            },
            "orbiting_body": "Earth"
        },
        {
            "close_approach_date": "2009-12-19",
            "close_approach_date_full": "2009-Dec-19 09:00",
            "epoch_date_close_approach": 1261213200000,
            "relative_velocity": {
                "kilometers_per_second": "13.7402151009",
                "kilometers_per_hour": "49464.7743632818",
                "miles_per_hour": "30735.4871592292"
            },
            "miss_distance": {
                "astronomical": "0.4780693793",
                "lunar": "185.9689885477",
                "kilometers": "71518160.855502091",
                "miles": "44439324.4767512158"
            },
            "orbiting_body": "Earth"
        },
        {
            "close_approach_date": "2123-08-01",
            "close_approach_date_full": "2123-Aug-01 06:12",
            "epoch_date_close_approach": 4846543920000,
            "relative_velocity": {
                "kilometers_per_second": "15.3276956209",
                "kilometers_per_hour": "55179.7042352116",
                "miles_per_hour": "34286.5223343735"
            },
            "miss_distance": {
                "astronomical": "0.0444600218",
                "lunar": "17.2949484802",
                "kilometers": "6651124.561433566",
                "miles": "4132817.1611965708"
            },
            "orbiting_body": "Earth"
        },
        {
            "close_approach_date": "2123-12-20",
            "close_approach_date_full": "2123-Dec-20 16:43",
            "epoch_date_close_approach": 4858764180000,
            "relative_velocity": {
                "kilometers_per_second": "13.761164525",
                "kilometers_per_hour": "49540.1922899219",
                "miles_per_hour": "30782.348925924"
            },
            "miss_distance": {
                "astronomical": "0.4742777693",
                "lunar": "184.4940522577",
                "kilometers": "70950944.075631391",
                "miles": "44086872.3131635558"
            },
            "orbiting_body": "Earth"
        }
    ],
    "orbital_data": {
        "orbit_id": "6",
        "orbit_determination_date": "2017-04-06 09:00:19",
        "first_observation_date": "2009-07-28",
        "last_observation_date": "2009-07-29",
        "data_arc_in_days": 1,
        "observations_used": 16,
        "orbit_uncertainty": "9",
        "minimum_orbit_intersection": ".0364003",
        "jupiter_tisserand_invariant": "4.669",
        "epoch_osculation": "2455041.5",
        "eccentricity": ".2745633583422564",
        "semi_major_axis": "1.371114089143828",
        "inclination": "27.65067311832699",
        "ascending_node_longitude": "125.1450191559874",
        "orbital_period": "586.4200588315518",
        "perihelion_distance": ".9946564001581143",
        "perihelion_argument": "222.2498693541268",
        "aphelion_distance": "1.747571778129541",
        "perihelion_time": "2455079.847916917986",
        "mean_anomaly": "336.4584279091986",
        "mean_motion": ".6138944167723454",
        "equinox": "J2000",
        "orbit_class": {
            "orbit_class_type": "APO",
            "orbit_class_description": "Near-Earth asteroid orbits which cross the Earth’s orbit similar to that of 1862 Apollo",
            "orbit_class_range": "a (semi-major axis) > 1.0 AU; q (perihelion) < 1.017 AU"
        }
    },
    "is_sentry_object": false
}